STARLINK-31112          
1 58680U 23211P   24246.60323401  .00007773  00000+0  30666-3 0  9990
2 58680  42.9989 324.8136 0000860 241.9703 118.1061 15.25910914 39105
STARLINK-31147          
1 58681U 23211Q   24246.60549607  .00003908  00000+0  15914-3 0  9994
2 58681  43.0022 324.8408 0000395 270.1893  89.8912 15.25907815 39199
STARLINK-31144          
1 58682U 23211R   24246.51062491  .00003995  00000+0  16243-3 0  9998
2 58682  42.9989 324.9816 0000355 261.4691  98.6120 15.25921408 37910
STARLINK-31095          
1 58683U 23211S   24246.53326622  .00011225  00000+0  43833-3 0  9990
2 58683  42.9997 325.1446 0000335 314.5272  45.5552 15.25906506 39188
STARLINK-31107          
1 58684U 23211T   24246.52421180  .00004541  00000+0  18339-3 0  9991
2 58684  42.9995 325.0763 0001791 280.1388  79.9261 15.25899605 37919
STARLINK-31121          
1 58685U 23211U   24246.64833011  .00005918  00000+0  23593-3 0  9992
2 58685  43.0004 324.2930 0001013 271.8530  88.2205 15.25906317 39106
STARLINK-31137          
1 58686U 23211V   24246.50837688  .00007091  00000+0  28077-3 0  9998
2 58686  42.9980 324.9637 0000410 270.0934  89.9870 15.25894981 37914
STARLINK-31139          
1 58688U 23211X   24246.58740477  .00041717  00000+0  15939-2 0  9992
2 58688  43.0001 324.6945 0000996 275.0921  84.9816 15.25945580 37929
STARLINK-31106          
1 58689U 23211Y   24246.52873252  .00004865  00000+0  19577-3 0  9991
2 58689  42.9982 325.1087 0001070 121.3217 238.7739 15.25894640 37916
STARLINK-11072 [DTC]    
1 58705U 24002A   24246.41057589 -.00000849  00000+0 -18834-5 0  9991
2 58705  53.1583 128.4537 0000875 108.7872 251.3242 15.71464725 39446
STARLINK-11075 [DTC]    
1 58706U 24002B   24246.84651080  .00005362  00000+0  52613-4 0  9990
2 58706  53.1575 126.9345 0001787 105.9105 254.2109 15.67966876 39453
STARLINK-11077 [DTC]    
1 58707U 24002C   24245.98944127  .00003917  00000+0  34668-4 0  9996
2 58707  53.1584 130.7996 0001159 106.2872 253.8274 15.71457485 39372
STARLINK-11079 [DTC]    
1 58708U 24002D   24245.98344423 -.00002586  00000+0 -15212-4 0  9997
2 58708  53.1589 130.7719 0001107 121.2596 238.8532 15.71461151 39379
STARLINK-11076 [DTC]    
1 58709U 24002E   24246.40501105  .00005699  00000+0  48320-4 0  9990
2 58709  53.1576 128.4212 0001170 132.4668 227.6450 15.71459484 39441
STARLINK-11078 [DTC]    
1 58710U 24002F   24246.40746303  .00003562  00000+0  31950-4 0  9991
2 58710  53.1571 128.4368 0001104  73.0196 287.0944 15.71458883 39443
STARLINK-31031          
1 58711U 24002G   24246.35739682 -.00005859  00000+0 -39036-3 0  9993
2 58711  53.1565 229.3304 0001496  95.8695 264.2466 15.04914501 38027
STARLINK-31029          
1 58712U 24002H   24246.33391728  .00001383  00000+0  11594-3 0  9992
2 58712  53.1595 229.8885 0001547  94.3601 265.7566 15.04936076 38015
STARLINK-30973          
1 58713U 24002J   24246.26428997 -.00000313  00000+0 -25196-5 0  9993
2 58713  53.1596 230.1631 0001531 101.1957 258.9205 15.04927309 38007
STARLINK-31100          
1 58714U 24002K   24246.26106516  .00006867  00000+0  49843-3 0  9995
2 58714  53.1580 230.1417 0001479  97.0229 263.0929 15.04936096 38002
STARLINK-31102          
1 58715U 24002L   24246.39067347  .00001139  00000+0  98935-4 0  9992
2 58715  53.1578 229.5331 0001570  88.9208 271.1962 15.04929496 38020
STARLINK-31098          
1 58716U 24002M   24246.25462996 -.00000037  00000+0  16777-4 0  9998
2 58716  53.1593 230.1055 0001492  89.5609 270.5551 15.04929860 38004
STARLINK-31093          
1 58717U 24002N   24246.36063357  .00001418  00000+0  11841-3 0  9998
2 58717  53.1568 229.3638 0001589  96.2110 263.9061 15.04930150 38021
STARLINK-31097          
1 58718U 24002P   24246.38424819  .00008799  00000+0  63300-3 0  9991
2 58718  53.1572 229.4893 0001245  92.2804 267.8328 15.04939339 38023
STARLINK-31051          
1 58719U 24002Q   24246.38101598  .00000372  00000+0  45361-4 0  9995
2 58719  53.1585 229.4677 0001606  90.4486 269.6688 15.04929877 38020
STARLINK-31027          
1 58720U 24002R   24246.37779127  .00000487  00000+0  53404-4 0  9999
2 58720  53.1594 229.4505 0001512  90.2099 269.9064 15.04936877 38025
STARLINK-30972          
1 58721U 24002S   24246.24175147  .00002387  00000+0  18604-3 0  9991
2 58721  53.1580 230.0201 0001632  92.8502 267.2674 15.04933440 38001
STARLINK-31040          
1 58722U 24002T   24246.23746411  .00000960  00000+0  86394-4 0  9996
2 58722  53.1584 229.9915 0001589  97.3789 262.7381 15.04929163 38005
STARLINK-31033          
1 58723U 24002U   24246.35418650  .00003025  00000+0  23052-3 0  9997
2 58723  53.1577 229.3031 0001293  92.1198 267.9939 15.04935827 38022
STARLINK-30893          
1 58724U 24002V   24246.36707142  .00001284  00000+0  10907-3 0  9996
2 58724  53.1577 229.3925 0001710  92.5064 267.6121 15.04929713 38022
STARLINK-30856          
1 58725U 24002W   24246.36384521  .00002145  00000+0  16909-3 0  9994
2 58725  53.1581 229.3649 0001473 102.4687 257.6468 15.04935590 38022
STARLINK-31155          
1 58728U 24005A   24246.64692429  .00003241  00000+0  25480-3 0  9992
2 58728  43.0014 346.3648 0000648 239.8091 120.2687 15.02547357 37249
STARLINK-31115          
1 58729U 24005B   24246.64359461 -.00000578  00000+0 -27744-4 0  9997
2 58729  43.0035 346.3288 0000866 275.2224  84.8520 15.02541082 37247
STARLINK-31150          
1 58730U 24005C   24246.39089732  .00006638  00000+0  16602-3 0  9993
2 58730  43.0042 259.0422 0001879 259.6064 100.4580 15.40703320 38227
STARLINK-31204          
1 58731U 24005D   24246.72155389 -.00000592  00000+0 -28763-4 0  9990
2 58731  43.0055 347.7622 0001288 273.1786  86.8909 15.02520272 37227
STARLINK-31180          
1 58732U 24005E   24246.33784622 -.00000020  00000+0  13591-4 0  9994
2 58732  43.0051 348.3404 0001551 265.7164  94.3501 15.02539419 37178
STARLINK-31164          
1 58733U 24005F   24246.37446817 -.00000125  00000+0  58453-5 0  9993
2 58733  43.0064 348.6090 0002276 260.1333  99.9252 15.02536396 37174
STARLINK-31152          
1 58734U 24005G   24246.70353072 -.00002518  00000+0 -17134-3 0  9999
2 58734  43.0056 346.7771 0001468 266.1798  93.8876 15.02541141 37230
STARLINK-31157          
1 58735U 24005H   24246.56724633 -.00000762  00000+0 -41358-4 0  9994
2 58735  43.0070 347.4780 0001665 271.7231  88.3421 15.02534392 37211
STARLINK-31076          
1 58736U 24005J   24246.56391529  .00001545  00000+0  12941-3 0  9992
2 58736  43.0024 347.4471 0000951 276.1410  83.9324 15.02544249 37252
STARLINK-31101          
1 58737U 24005K   24246.55726942 -.00000067  00000+0  10088-4 0  9993
2 58737  43.0038 347.3979 0001476 249.0461 111.0223 15.02534280 37220
STARLINK-31108          
1 58738U 24005L   24246.29467501 -.00003523  00000+0 -24589-3 0  9999
2 58738  43.0067 348.8712 0001049 272.1244  87.9478 15.02535280 37163
STARLINK-31042          
1 58739U 24005M   24246.55392527 -.00000373  00000+0 -12560-4 0  9991
2 58739  43.0034 347.3711 0000979 264.1377  95.9354 15.02545832 37212
STARLINK-31159          
1 58740U 24005N   24246.55059801 -.00001923  00000+0 -12730-3 0  9998
2 58740  43.0003 347.3429 0001862 261.7869  98.2762 15.02532021 37313
STARLINK-31148          
1 58741U 24005P   24246.54726660 -.00000903  00000+0 -51779-4 0  9996
2 58741  43.0018 347.3351 0001102 265.7807  94.2909 15.02543853 37210
STARLINK-31151          
1 58742U 24005Q   24246.34450216 -.00001690  00000+0 -11007-3 0  9999
2 58742  43.0059 348.3955 0001467 248.2942 111.7744 15.02535784 37279
STARLINK-31156          
1 58743U 24005R   24246.27470206 -.00001384  00000+0 -87431-4 0  9998
2 58743  43.0059 348.7334 0001287 267.6340  92.4355 15.02536606 37224
STARLINK-31167          
1 58744U 24005S   24246.24393332 -.00002288  00000+0 -77704-4 0  9996
2 58744  43.0011 314.5030 0000551 287.8318  72.2473 15.25897329 37627
STARLINK-31176          
1 58745U 24005T   24246.33451821 -.00000502  00000+0 -22071-4 0  9999
2 58745  43.0023 348.3189 0001019 254.8181 105.2549 15.02537888 37226
STARLINK-31181          
1 58746U 24005U   24246.48312435  .00005056  00000+0  20301-3 0  9993
2 58746  43.0004 312.8304 0000760 253.2749 106.8019 15.25906342 37663
STARLINK-31183          
1 58747U 24005V   24246.59377493  .00000216  00000+0  31065-4 0  9994
2 58747  43.0012 346.8237 0000664 286.7011  73.3758 15.02530498 37322
STARLINK-31165          
1 58748U 24005W   24246.59710116  .00004442  00000+0  34383-3 0  9998
2 58748  43.0049 346.8487 0001450 264.4096  95.6581 15.02524825 37227
STARLINK-31160          
1 58749U 24005X   24246.65357756 -.00002134  00000+0 -14293-3 0  9999
2 58749  43.0075 346.3444 0001642 283.7550  76.3110 15.02541474 37231
STARLINK-31179          
1 58750U 24005Y   24246.65691808 -.00002448  00000+0 -16625-3 0  9999
2 58750  43.0061 346.4384 0001620 268.3031  91.7626 15.02527123 37239
STARLINK-31127          
1 58765U 24011A   24246.64171287  .00007883  00000+0  56966-3 0  9993
2 58765  53.1617   7.4427 0001580  92.5594 267.5576 15.04909519 36389
STARLINK-31114          
1 58766U 24011B   24246.59126775 -.00003458  00000+0 -22228-3 0  9990
2 58766  53.1640   7.1339 0001255  99.6081 260.5050 15.04931406 36383
STARLINK-31140          
1 58767U 24011C   24246.63847922  .00002355  00000+0  18381-3 0  9998
2 58767  53.1624   7.4246 0001217  87.1881 272.9248 15.04929831 36389
STARLINK-31145          
1 58768U 24011D   24246.63526304  .00002098  00000+0  16584-3 0  9994
2 58768  53.1615   7.4017 0001297  92.0407 268.0731 15.04928699 36387
STARLINK-31146          
1 58769U 24011E   24246.63097190  .00021424  00000+0  15106-2 0  9993
2 58769  53.1630   7.3770 0001659  95.0985 265.0194 15.04945077 36385
STARLINK-31143          
1 58770U 24011F   24246.62776078  .00027602  00000+0  19386-2 0  9991
2 58770  53.1623   7.3548 0001554  95.9869 264.1298 15.04952141 36268
